{"type": "FeatureCollection", "features": [ {"type": "Feature", "properties": {"norad_id": 38953, "name": "BEIDOU-2 G6 (C02)", "group": "beidou", "lat": 3.646431504823992, "lon": 141.06583954165612, "alt_km": 35806.856743314995, "timestamp": "2025-12-26T21:25:53.275580+00:00", "meta": {"OBJECT_NAME": "BEIDOU-2 G6 (C02)", "OBJECT_ID": "2012-059A", "EPOCH": "2025-12-25T22:54:51.748704", "MEAN_MOTION": 1.00274748, "ECCENTRICITY": 0.00078835, "INCLINATION": 3.9809, "RA_OF_ASC_NODE": 75.381, "ARG_OF_PERICENTER": 293.9359, "MEAN_ANOMALY": 153.0475, "EPHEMERIS_TYPE": 0, "CLASSIFICATION_TYPE": "U", "NORAD_CAT_ID": 38953, "ELEMENT_SET_NO": 999, "REV_AT_EPOCH": 4817, "BSTAR": 0, "MEAN_MOTION_DOT": -1.55e-06, "MEAN_MOTION_DDOT": 0}, "tle": {"line1": "1 38953U 12059A   25359.95476561 -.00000155  00000+0  00000+0 0  9992", "line2": "2 38953   3.9809  75.3810 0007883 293.9359 153.0475  1.00274748 48177"}}, "geometry": {"type": "Point", "coordinates": [141.06583954165612, 3.646431504823992]}}, {"type": "Feature", "properties": {"norad_id": 40549, "name": "BEIDOU-3S IGSO-1S (C31)", "group": "beidou", "lat": -25.596989132894443, "lon": 141.62409194007896, "alt_km": 35640.39143821946, "timestamp": "2025-12-26T21:25:53.275592+00:00", "meta": {"OBJECT_NAME": "BEIDOU-3S IGSO-1S (C31)", "OBJECT_ID": "2015-019A", "EPOCH": "2025-12-26T15:52:50.904192", "MEAN_MOTION": 1.00290025, "ECCENTRICITY": 0.00365409, "INCLINATION": 49.5255, "RA_OF_ASC_NODE": 297.5472, "ARG_OF_PERICENTER": 194.2195, "MEAN_ANOMALY": 296.7012, "EPHEMERIS_TYPE": 0, "CLASSIFICATION_TYPE": "U", "NORAD_CAT_ID": 40549, "ELEMENT_SET_NO": 999, "REV_AT_EPOCH": 3934, "BSTAR": 0, "MEAN_MOTION_DOT": -1.8e-06, "MEAN_MOTION_DDOT": 0}, "tle": {"line1": "1 40549U 15019A   25360.66170028 -.00000180  00000+0  00000+0 0  9992", "line2": "2 40549  49.5255 297.5472 0036540 194.2195 296.7012  1.00290025 39344"}}, "geometry": {"type": "Point", "coordinates": [141.62409194007896, -25.596989132894443]}}, {"type": "Feature", "properties": {"norad_id": 40748, "name": "BEIDOU-3S M2S (C58)", "group": "beidou", "lat": -36.45478545330223, "lon": -83.14089812373184, "alt_km": 21508.19880618967, "timestamp": "2025-12-26T21:25:53.275604+00:00", "meta": {"OBJECT_NAME": "BEIDOU-3S M2S (C58)", "OBJECT_ID": "2015-037A", "EPOCH": "2025-12-24T19:32:44.901312", "MEAN_MOTION": 1.86229543, "ECCENTRICITY": 0.00118109, "INCLINATION": 55.028, "RA_OF_ASC_NODE": 308.0499, "ARG_OF_PERICENTER": 271.2412, "MEAN_ANOMALY": 88.6304, "EPHEMERIS_TYPE": 0, "CLASSIFICATION_TYPE": "U", "NORAD_CAT_ID": 40748, "ELEMENT_SET_NO": 999, "REV_AT_EPOCH": 7087, "BSTAR": 0, "MEAN_MOTION_DOT": -5.3e-07, "MEAN_MOTION_DDOT": 0}, "tle": {"line1": "1 40748U 15037A   25358.81440858 -.00000053  00000+0  00000+0 0  9997", "line2": "2 40748  55.0280 308.0499 0011810 271.2412  88.6304  1.86229543 70879"}}, "geometry": {"type": "Point", "coordinates": [-83.14089812373184, -36.45478545330223]}}, {"type": "Feature", "properties": {"norad_id": 40749, "name": "BEIDOU-3S M1S (C57)", "group": "beidou", "lat": 15.83404969980703, "lon": 116.51070552512627, "alt_km": 21533.558981522958, "timestamp": "2025-12-26T21:25:53.275615+00:00", "meta": {"OBJECT_NAME": "BEIDOU-3S M1S (C57)", "OBJECT_ID": "2015-037B", "EPOCH": "2025-12-26T02:48:07.376256", "MEAN_MOTION": 1.86253839, "ECCENTRICITY": 0.00037251, "INCLINATION": 55.0231, "RA_OF_ASC_NODE": 307.9941, "ARG_OF_PERICENTER": 3.0016, "MEAN_ANOMALY": 357.0085, "EPHEMERIS_TYPE": 0, "CLASSIFICATION_TYPE": "U", "NORAD_CAT_ID": 40749, "ELEMENT_SET_NO": 999, "REV_AT_EPOCH": 7090, "BSTAR": 0, "MEAN_MOTION_DOT": -5.5e-07, "MEAN_MOTION_DDOT": 0}, "tle": {"line1": "1 40749U 15037B   25360.11675204 -.00000055  00000+0  00000+0 0  9991", "line2": "2 40749  55.0231 307.9941 0003725   3.0016 357.0085  1.86253839 70901"}}, "geometry": {"type": "Point", "coordinates": [116.51070552512627, 15.83404969980703]}}, {"type": "Feature", "properties": {"norad_id": 40938, "name": "BEIDOU-3S IGSO-2S (C56)", "group": "beidou", "lat": -46.51298887316656, "lon": 145.00104469326965, "alt_km": 35680.39690190502, "timestamp": "2025-12-26T21:25:53.275627+00:00", "meta": {"OBJECT_NAME": "BEIDOU-3S IGSO-2S (C56)", "OBJECT_ID": "2015-053A", "EPOCH": "2025-12-26T16:11:41.602848", "MEAN_MOTION": 1.00266904, "ECCENTRICITY": 0.00606928, "INCLINATION": 49.4889, "RA_OF_ASC_NODE": 260.8421, "ARG_OF_PERICENTER": 188.2714, "MEAN_ANOMALY": 344.9526, "EPHEMERIS_TYPE": 0, "CLASSIFICATION_TYPE": "U", "NORAD_CAT_ID": 40938, "ELEMENT_SET_NO": 999, "REV_AT_EPOCH": 3762, "BSTAR": 0, "MEAN_MOTION_DOT": -1.24e-06, "MEAN_MOTION_DDOT": 0}, "tle": {"line1": "1 40938U 15053A   25360.67478707 -.00000124  00000+0  00000+0 0  9996", "line2": "2 40938  49.4889 260.8421 0060692 188.2714 344.9526  1.00266904 37624"}}, "geometry": {"type": "Point", "coordinates": [145.00104469326965, -46.51298887316656]}}, {"type": "Feature", "properties": {"norad_id": 41434, "name": "BEIDOU-2 IGSO-6 (C13)", "group": "beidou", "lat": 54.231313899525865, "lon": 166.45038065173802, "alt_km": 35903.510177970944, "timestamp": "2025-12-26T21:25:53.275638+00:00", "meta": {"OBJECT_NAME": "BEIDOU-2 IGSO-6 (C13)", "OBJECT_ID": "2016-021A", "EPOCH": "2025-12-25T02:21:14.682240", "MEAN_MOTION": 1.00290736, "ECCENTRICITY": 0.00608236, "INCLINATION": 59.9818, "RA_OF_ASC_NODE": 39.7747, "ARG_OF_PERICENTER": 230.5129, "MEAN_ANOMALY": 312.5474, "EPHEMERIS_TYPE": 0, "CLASSIFICATION_TYPE": "U", "NORAD_CAT_ID": 41434, "ELEMENT_SET_NO": 999, "REV_AT_EPOCH": 3573, "BSTAR": 0, "MEAN_MOTION_DOT": -1.35e-06, "MEAN_MOTION_DDOT": 0}, "tle": {"line1": "1 41434U 16021A   25359.09808660 -.00000135  00000+0  00000+0 0  9995", "line2": "2 41434  59.9818  39.7747 0060823 230.5129 312.5474  1.00290736 35738"}}, "geometry": {"type": "Point", "coordinates": [166.45038065173802, 54.231313899525865]}}, {"type": "Feature", "properties": {"norad_id": 41586, "name": "BEIDOU-2 G7 (C03)", "group": "beidou", "lat": 1.7719577393641603, "lon": 167.56559032136863, "alt_km": 35790.42958825947, "timestamp": "2025-12-26T21:25:53.275650+00:00", "meta": {"OBJECT_NAME": "BEIDOU-2 G7 (C03)", "OBJECT_ID": "2016-037A", "EPOCH": "2025-12-26T15:50:23.467776", "MEAN_MOTION": 1.00267732, "ECCENTRICITY": 0.00051628, "INCLINATION": 1.7889, "RA_OF_ASC_NODE": 67.91, "ARG_OF_PERICENTER": 0.4521, "MEAN_ANOMALY": 15.0455, "EPHEMERIS_TYPE": 0, "CLASSIFICATION_TYPE": "U", "NORAD_CAT_ID": 41586, "ELEMENT_SET_NO": 999, "REV_AT_EPOCH": 516, "BSTAR": 0, "MEAN_MOTION_DOT": -3.31e-06, "MEAN_MOTION_DDOT": 0}, "tle": {"line1": "1 41586U 16037A   25360.65999384 -.00000331  00000+0  00000+0 0  9996", "line2": "2 41586   1.7889  67.9100 0005162   0.4521  15.0455  1.00267732  5168"}}, "geometry": {"type": "Point", "coordinates": [167.56559032136863, 1.7719577393641603]}}, {"type": "Feature", "properties": {"norad_id": 43001, "name": "BEIDOU-3 M1 (C19)", "group": "beidou", "lat": 55.74924482869988, "lon": 144.74726839822395, "alt_km": 21542.467758343308, "timestamp": "2025-12-26T21:25:53.275662+00:00", "meta": {"OBJECT_NAME": "BEIDOU-3 M1 (C19)", "OBJECT_ID": "2017-069A", "EPOCH": "2025-12-25T03:49:47.920224", "MEAN_MOTION": 1.86231313, "ECCENTRICITY": 0.0009789, "INCLINATION": 56.5365, "RA_OF_ASC_NODE": 68.8241, "ARG_OF_PERICENTER": 302.2681, "MEAN_ANOMALY": 57.6912, "EPHEMERIS_TYPE": 0, "CLASSIFICATION_TYPE": "U", "NORAD_CAT_ID": 43001, "ELEMENT_SET_NO": 999, "REV_AT_EPOCH": 5536, "BSTAR": 0, "MEAN_MOTION_DOT": -2.5e-07, "MEAN_MOTION_DDOT": 0}, "tle": {"line1": "1 43001U 17069A   25359.15958241 -.00000025  00000+0  00000+0 0  9996", "line2": "2 43001  56.5365  68.8241 0009789 302.2681  57.6912  1.86231313 55361"}}, "geometry": {"type": "Point", "coordinates": [144.74726839822395, 55.74924482869988]}}, {"type": "Feature", "properties": {"norad_id": 43002, "name": "BEIDOU-3 M2 (C20)", "group": "beidou", "lat": 44.09252639908791, "lon": -150.97227540711438, "alt_km": 21539.963582225082, "timestamp": "2025-12-26T21:25:53.275673+00:00", "meta": {"OBJECT_NAME": "BEIDOU-3 M2 (C20)", "OBJECT_ID": "2017-069B", "EPOCH": "2025-12-25T15:14:16.903968", "MEAN_MOTION": 1.86231039, "ECCENTRICITY": 0.0006764, "INCLINATION": 56.5366, "RA_OF_ASC_NODE": 68.8439, "ARG_OF_PERICENTER": 327.6836, "MEAN_ANOMALY": 32.3283, "EPHEMERIS_TYPE": 0, "CLASSIFICATION_TYPE": "U", "NORAD_CAT_ID": 43002, "ELEMENT_SET_NO": 999, "REV_AT_EPOCH": 5536, "BSTAR": 0, "MEAN_MOTION_DOT": -2.7e-07, "MEAN_MOTION_DDOT": 0}, "tle": {"line1": "1 43002U 17069B   25359.63491787 -.00000027  00000+0  00000+0 0  9999", "line2": "2 43002  56.5366  68.8439 0006764 327.6836  32.3283  1.86231039 55361"}}, "geometry": {"type": "Point", "coordinates": [-150.97227540711438, 44.09252639908791]}}, {"type": "Feature", "properties": {"norad_id": 43107, "name": "BEIDOU-3 M7 (C27)", "group": "beidou", "lat": -47.07418401228825, "lon": -101.78542817007552, "alt_km": 21538.592784673994, "timestamp": "2025-12-26T21:25:53.275685+00:00", "meta": {"OBJECT_NAME": "BEIDOU-3 M7 (C27)", "OBJECT_ID": "2018-003A", "EPOCH": "2025-12-23T05:31:08.538816", "MEAN_MOTION": 1.86232625, "ECCENTRICITY": 0.0002961, "INCLINATION": 54.4874, "RA_OF_ASC_NODE": 308.4506, "ARG_OF_PERICENTER": 66.5422, "MEAN_ANOMALY": 293.4915, "EPHEMERIS_TYPE": 0, "CLASSIFICATION_TYPE": "U", "NORAD_CAT_ID": 43107, "ELEMENT_SET_NO": 999, "REV_AT_EPOCH": 5407, "BSTAR": 0, "MEAN_MOTION_DOT": -5.5e-07, "MEAN_MOTION_DDOT": 0}, "tle": {"line1": "1 43107U 18003A   25357.22995994 -.00000055  00000+0  00000+0 0  9997", "line2": "2 43107  54.4874 308.4506 0002961  66.5422 293.4915  1.86232625 54072"}}, "geometry": {"type": "Point", "coordinates": [-101.78542817007552, -47.07418401228825]}}]}